FLOCK 4G-8              
1 62613U 25009E   26068.72381419  .00013559  00000+0  50438-3 0  9996
2 62613  97.4045 151.2834 0003050 315.2538  44.8455 15.27623414 63721
STARLINK-33680          
1 63287U 25053Y   26068.53585356  .00026875  00000+0  98199-3 0  9999
2 63287  43.0018 242.3219 0001014 208.3718 151.7079 15.27599733 56228
